COSMOS 2433 (720)       
1 32275U 07052A   26027.13822696 -.00000062  00000+0  00000+0 0  9994
2 32275  65.6571 320.6819 0003737 266.2853  93.6892  2.13103898142056
COSMOS 2432 (719)       
1 32276U 07052B   26028.32988729 -.00000067  00000+0  00000+0 0  9992
2 32276  65.6722 320.7668 0011272 322.0974 176.4128  2.13103179142106
COSMOS 2434 (721)       
1 32393U 07065A   26027.51191046  .00000109  00000+0  00000+0 0  9990
2 32393  64.3181 196.6576 0004875  73.2446 103.8579  2.13101187140771
COSMOS 2436 (723)       
1 32395U 07065C   26027.68288351  .00000108  00000+0  00000+0 0  9995
2 32395  64.3268 196.7224 0017780  10.2216  70.9324  2.13100079140732
COSMOS 2456 (730)       
1 36111U 09070A   26027.66976992 -.00000007  00000+0  00000+0 0  9995
2 36111  64.9258  75.7674 0005194 298.6164 156.9365  2.13103606125431
COSMOS 2457 (733)       
1 36112U 09070B   26028.35016813 -.00000004  00000+0  00000+0 0  9997
2 36112  64.9115  75.5908 0003317 178.8055 207.4341  2.13100963125456
COSMOS 2460 (732)       
1 36402U 10007C   26027.05627958 -.00000061  00000+0  00000+0 0  9998
2 36402  65.5025 319.2435 0001826 327.6314 146.1770  2.13106000123724
COSMOS 2476 (744)       
1 37867U 11064A   26027.24435249 -.00000008  00000+0  00000+0 0  9990
2 37867  65.1863  77.6316 0025064 238.2029 159.3284  2.13103732110764
COSMOS 2477 (745)       
1 37868U 11064B   26027.41526806 -.00000007  00000+0  00000+0 0  9999
2 37868  65.1930  77.7041 0022196 239.4340 109.9943  2.13102861110752
COSMOS 2475 (743)       
1 37869U 11064C   26027.57483197 -.00000007  00000+0  00000+0 0  9992
2 37869  65.2000  77.7189 0027766 251.9583 175.6109  2.13101643110774
COSMOS 2485 (747)       
1 39155U 13019A   26028.07091664 -.00000005  00000+0  00000+0 0  9992
2 39155  65.3380  78.3090 0025485 233.7983 126.0345  2.13103073 99296
COSMOS 2492 (754)       
1 39620U 14012A   26028.02959677 -.00000064  00000+0  00000+0 0  9990
2 39620  65.3799 318.7012 0014053 319.6313  40.2822  2.13103157 92251
COSMOS 2500 (755)       
1 40001U 14032A   26028.20117841 -.00000065  00000+0  00000+0 0  9997
2 40001  65.3154 318.4540 0006212 215.6673 144.3092  2.13105963 90470
COSMOS 2501 (702K)      
1 40315U 14075A   26027.52286661  .00000106  00000+0  00000+0 0  9998
2 40315  63.6170 195.2384 0020262 204.0027 155.9019  2.13101260 86850
COSMOS 2514 (751)       
1 41330U 16008A   26028.44562997 -.00000065  00000+0  00000+0 0  9990
2 41330  65.1048 317.8044 0010135 216.8082 143.1409  2.13102526 77649
COSMOS 2522 (752)       
1 42939U 17055A   26027.81446986  .00000106  00000+0  00000+0 0  9993
2 42939  64.0792 196.6590 0006331 222.4821 137.4693  2.13101776 64985
COSMOS 2527 (756)       
1 43508U 18053A   26028.24484824 -.00000005  00000+0  00000+0 0  9995
2 43508  65.4966  78.5772 0009496 236.9042 123.0739  2.13102149 59291
COSMOS 2529 (757)       
1 43687U 18086A   26028.34195428  .00000100  00000+0  00000+0 0  9994
2 43687  64.2949 197.3131 0006855 252.2315 107.6934  2.13101905 56309
COSMOS 2534 (758)       
1 44299U 19030A   26025.58160306  .00000118  00000+0  00000+0 0  9993
2 44299  64.3690 197.4150 0008651 282.9744 253.7470  2.13102048 51882
COSMOS 2544 (759)       
1 44850U 19088A   26027.72019081 -.00000006  00000+0  00000+0 0  9997
2 44850  65.4837  78.4207 0015258 255.1304 104.7690  2.13101924 47725
COSMOS 2545 (760)       
1 45358U 20018A   26026.97727617 -.00000060  00000+0  00000+0 0  9993
2 45358  64.4414 317.3838 0009883 252.7440 107.1696  2.13102416 45655
COSMOS 2547 (705K)      
1 46805U 20075A   26027.63487984  .00000109  00000+0  00000+0 0  9991
2 46805  64.5995 197.1629 0006167 227.2323 132.7176  2.13100051 40913
COSMOS 2557 (706K)      
1 52984U 22075A   26027.33076737 -.00000064  00000+0  00000+0 0  9996
2 52984  64.3824 319.4494 0012786 281.5069  78.3681  2.13101738 27712
COSMOS 2559 (707K)      
1 54031U 22130A   26025.27301616 -.00000054  00000+0  00000+0 0  9990
2 54031  64.3560 319.6094 0010848 187.8486 172.1576  2.13101080 25646
COSMOS 2564 (761)       
1 54377U 22161A   26027.93240514  .00000106  00000+0  00000+0 0  9998
2 54377  64.7415 197.3640 0008722 204.1378 155.8228  2.13101883 24643
COSMOS 2569 (703K)      
1 57517U 23114A   26028.41485948 -.00000004  00000+0  00000+0 0  9990
2 57517  65.2196  77.3354 0012209 289.1271  70.8106  2.13103901 19281
COSMOS 2584 (704K)      
1 63130U 25042A   26024.54756284 -.00000001  00000+0  00000+0 0  9991
2 63130  64.9992  77.6870 0007940 228.4435 131.5609  2.13103048  6987
COSMOS 2596 (708K)      
1 65590U 25206B   26028.63963225 -.00000068  00000+0  00000+0 0  9997
2 65590  64.7159 319.8453 0013631 311.3824  65.8899  2.13099919  2941
